<?xml version="1.0" encoding="UTF-8"?>
<kml xmlns="http://www.opengis.net/kml/2.2" xmlns:gx="http://www.google.com/kml/ext/2.2" xmlns:kml="http://www.opengis.net/kml/2.2" xmlns:atom="http://www.w3.org/2005/Atom">
<Document>
	<name>Purdue Grand Prix Track</name>
	<gx:CascadingStyle kml:id="__managed_style_2F2C7426FF3AEADD12FC">
		<Style>
			<IconStyle>
				<scale>1.2</scale>
				<Icon>
					<href>https://earth.google.com/earth/document/icon?color=1976d2&amp;id=2000&amp;scale=4</href>
				</Icon>
				<hotSpot x="64" y="128" xunits="pixels" yunits="insetPixels"/>
			</IconStyle>
			<LabelStyle>
			</LabelStyle>
			<LineStyle>
				<color>ff2dc0fb</color>
				<width>4.8</width>
			</LineStyle>
			<PolyStyle>
				<color>40ffffff</color>
			</PolyStyle>
			<BalloonStyle>
				<displayMode>hide</displayMode>
			</BalloonStyle>
		</Style>
	</gx:CascadingStyle>
	<gx:CascadingStyle kml:id="__managed_style_151CA4CC233AEADD12FC">
		<Style>
			<IconStyle>
				<Icon>
					<href>https://earth.google.com/earth/document/icon?color=1976d2&amp;id=2000&amp;scale=4</href>
				</Icon>
				<hotSpot x="64" y="128" xunits="pixels" yunits="insetPixels"/>
			</IconStyle>
			<LabelStyle>
			</LabelStyle>
			<LineStyle>
				<color>ff2dc0fb</color>
				<width>3.2</width>
			</LineStyle>
			<PolyStyle>
				<color>40ffffff</color>
			</PolyStyle>
			<BalloonStyle>
				<displayMode>hide</displayMode>
			</BalloonStyle>
		</Style>
	</gx:CascadingStyle>
	<StyleMap id="__managed_style_0CB06012F13AEADD12FC">
		<Pair>
			<key>normal</key>
			<styleUrl>#__managed_style_151CA4CC233AEADD12FC</styleUrl>
		</Pair>
		<Pair>
			<key>highlight</key>
			<styleUrl>#__managed_style_2F2C7426FF3AEADD12FC</styleUrl>
		</Pair>
	</StyleMap>
	<Placemark id="0DD2E555083AC6B66DFE">
		<name>Inside 2</name>
		<LookAt>
			<longitude>-86.94465383801553</longitude>
			<latitude>40.43778212459016</latitude>
			<altitude>207.4415496066363</altitude>
			<heading>58.46954231837694</heading>
			<tilt>9.93140553516173</tilt>
			<gx:fovy>35</gx:fovy>
			<range>111.5211053034728</range>
			<altitudeMode>absolute</altitudeMode>
		</LookAt>
		<styleUrl>#__managed_style_0CB06012F13AEADD12FC</styleUrl>
		<Polygon>
			<outerBoundaryIs>
				<LinearRing>
					<coordinates>
						-86.94442392034885,40.43771417257356,0 -86.94405969906286,40.43754703952193,0 -86.94404326367173,40.4375450133071,0 -86.94403178512866,40.43754547592943,0 -86.94401936156234,40.43754658825727,0 -86.94400854132026,40.43755074166793,0 -86.94399816314734,40.43755496570499,0 -86.94381004346,40.43768688258535,0 -86.94379726421414,40.43769860414808,0 -86.9437889876497,40.43770945744709,0 -86.94378518313937,40.43772438761491,0 -86.94378733068844,40.43800363459915,0 -86.94379089002381,40.43828523688926,0 -86.94379403409238,40.43830191543868,0 -86.94380474438452,40.43832049097065,0 -86.94381516222383,40.43833361227578,0 -86.94383537257899,40.43834441245046,0 -86.94385708225367,40.43834961063642,0 -86.94387718285408,40.43834975742691,0 -86.94389516023826,40.43834704726752,0 -86.94391556667287,40.43833861152387,0 -86.94392806427332,40.43833009734781,0 -86.94393656819615,40.43832193813401,0 -86.94394229850715,40.43831350592988,0 -86.94394734400424,40.4382962245357,0 -86.94394515308841,40.43827037595085,0 -86.94394087610137,40.43823430789033,0 -86.94395150585085,40.43819918605762,0 -86.94397225924128,40.43817431441897,0 -86.94399388512815,40.43815576907276,0 -86.94403105832967,40.43813451400832,0 -86.94406278279857,40.43811734905433,0 -86.94410065811006,40.4380946785959,0 -86.94411162121537,40.43808276563842,0 -86.94411553094547,40.43807290867086,0 -86.94411612322646,40.4380636840547,0 -86.94411351118333,40.43805588376983,0 -86.9441083435955,40.43804925925294,0 -86.94408980702191,40.438032316145,0 -86.9440592861591,40.43800584427094,0 -86.94402757723971,40.43797426367577,0 -86.94400684850898,40.43794053854918,0 -86.9440006317903,40.43791484630519,0 -86.94400319247842,40.43789390511571,0 -86.94401467202947,40.43787565823649,0 -86.94403431103152,40.43785583733423,0 -86.94406026764723,40.43783805756129,0 -86.9440917569505,40.43782292321867,0 -86.94414454382721,40.43781126225902,0 -86.94417348323145,40.43781017867513,0 -86.94421154348478,40.43781427627419,0 -86.94425843364597,40.43782176663981,0 -86.94429315238823,40.43783384332971,0 -86.94432234522141,40.43784646902265,0 -86.94435219584258,40.43786174408846,0 -86.94438005099522,40.43788073590853,0 -86.9444070993823,40.43790505396488,0 -86.94443185636248,40.43793504143631,0 -86.94445438746092,40.43797968353145,0 -86.94445999324661,40.43800862529724,0 -86.94445991297931,40.43803615223704,0 -86.94445486597304,40.43806694659969,0 -86.94441803891083,40.43818227863071,0 -86.94440229825805,40.43823496082378,0 -86.94439932980202,40.4382586515799,0 -86.94439970469742,40.43827136331318,0 -86.94440069131601,40.43828314251957,0 -86.94440623736691,40.43829850766908,0 -86.9444130351241,40.43831212356044,0 -86.94442284266913,40.43832266043228,0 -86.94443656655051,40.43833382062402,0 -86.94445553132721,40.43834451476643,0 -86.94448374108123,40.43835326389019,0 -86.94451503523614,40.43835871105283,0 -86.94455538244388,40.43836243686982,0 -86.94459135737142,40.43836139591326,0 -86.94462584357169,40.43835823152388,0 -86.94465573244184,40.43835164541276,0 -86.9446767621972,40.43834197964568,0 -86.94469291881256,40.43833096867112,0 -86.94470613177063,40.43831232122913,0 -86.94471313400403,40.4382959068699,0 -86.9447158681312,40.4382772852514,0 -86.9447128281207,40.43826482444999,0 -86.94470954581045,40.43825276529119,0 -86.94463802557576,40.43811448811489,0 -86.94463441355485,40.43808584175909,0 -86.94463899853586,40.43805985228308,0 -86.94464951559002,40.43803910445013,0 -86.9446706012944,40.43801920250473,0 -86.94470244486585,40.43800234581418,0 -86.94480178574837,40.43796915647835,0 -86.944812036814,40.43796154418882,0 -86.94481993032345,40.43795345871234,0 -86.94482557451818,40.43794208908434,0 -86.94482794460176,40.43793264282719,0 -86.9448279118828,40.43792517553659,0 -86.94482539199319,40.43791652634616,0 -86.94482258976541,40.43791033746611,0 -86.94481670426889,40.4379021839281,0 -86.94481148567101,40.43789577715805,0 -86.94480632376826,40.43789105417129,0 -86.9447971846832,40.43788480522144,0 -86.94442392034885,40.43771417257356,0 
					</coordinates>
				</LinearRing>
			</outerBoundaryIs>
		</Polygon>
	</Placemark>
	<Placemark id="09382277743AC6C2FAEF">
		<name>Outside 2</name>
		<LookAt>
			<longitude>-86.94440808893187</longitude>
			<latitude>40.43770808226925</latitude>
			<altitude>207.3299675138033</altitude>
			<heading>58.46953120722515</heading>
			<tilt>9.888336721920545</tilt>
			<gx:fovy>35</gx:fovy>
			<range>92.1955186580999</range>
			<altitudeMode>absolute</altitudeMode>
		</LookAt>
		<styleUrl>#__managed_style_0CB06012F13AEADD12FC</styleUrl>
		<Polygon>
			<outerBoundaryIs>
				<LinearRing>
					<coordinates>
						-86.94445500291407,40.43767582602025,0 -86.94408240335544,40.43750673929229,0 -86.94405299928438,40.43749878719404,0 -86.94402934773544,40.43749673066473,0 -86.94400594686705,40.43749647475344,0 -86.94398218024128,40.4375017035588,0 -86.94395804847493,40.43750982965928,0 -86.94377312891672,40.43764162738298,0 -86.94374652021556,40.43766364742802,0 -86.94372499811224,40.43768865828647,0 -86.94372461144987,40.43772179766485,0 -86.9437277664853,40.43800715167968,0 -86.94373143799528,40.43828707525622,0 -86.94373594613624,40.43831818812326,0 -86.94376022709925,40.43835090502833,0 -86.94378283695218,40.43836947173117,0 -86.94381208767479,40.43838703030214,0 -86.94384659136645,40.43839531244375,0 -86.94388008199341,40.43839719319731,0 -86.9439107709622,40.4383914036644,0 -86.9439350100708,40.43838091241476,0 -86.94396048203831,40.43836892871264,0 -86.94398181437442,40.43835241416494,0 -86.94399762849324,40.43833129171832,0 -86.94400280586846,40.43830270481732,0 -86.94400375057582,40.43827315963906,0 -86.94400034498345,40.43824076618451,0 -86.94400699312115,40.43821556079992,0 -86.94402081850774,40.43820263550689,0 -86.94403496164617,40.43818974871499,0 -86.94406583029019,40.43817191050547,0 -86.94409550478936,40.43815430840587,0 -86.94413923969218,40.43812694702117,0 -86.94416002407297,40.43810810877776,0 -86.94417060901834,40.43808641194872,0 -86.94417476095369,40.43806526465929,0 -86.94416858481767,40.43804508322837,0 -86.94415212461084,40.43802281331563,0 -86.9441286253101,40.43800207684785,0 -86.94409735513099,40.43797676290566,0 -86.94407123095252,40.43794787223971,0 -86.9440613113992,40.43793265180221,0 -86.94406027647538,40.43791943291532,0 -86.9440624471587,40.43790734680652,0 -86.94406737138642,40.43789855119272,0 -86.94407788930889,40.43788641884521,0 -86.94409568445238,40.43787676311399,0 -86.94411235688534,40.4378673927234,0 -86.94414568995576,40.43785865544355,0 -86.94417147535083,40.437856173782,0 -86.94420135681297,40.43785831608249,0 -86.94424381045641,40.43786925620123,0 -86.94426993074718,40.43787765239527,0 -86.94429376648125,40.43788718099505,0 -86.94432090146914,40.43790139152853,0 -86.94434301600704,40.4379171556058,0 -86.94436136611998,40.43793535323572,0 -86.94437502256012,40.43795642852007,0 -86.94439164369794,40.43799061975246,0 -86.9443972193336,40.43801208308744,0 -86.94439916970296,40.43803103815465,0 -86.94439459100808,40.43805822642567,0 -86.94436098905268,40.43817010381821,0 -86.94434383031886,40.43822484334743,0 -86.94433864379324,40.43825091077962,0 -86.94433871919392,40.43826762463899,0 -86.94434037963906,40.43828549093222,0 -86.9443454444439,40.43830569419586,0 -86.94435830362985,40.4383324908602,0 -86.94437441656952,40.43835419359247,0 -86.94440022705291,40.43837243888628,0 -86.9444294342306,40.43838428181874,0 -86.94446741689342,40.43839615258809,0 -86.94450462515987,40.43840289136617,0 -86.94454966462433,40.43840715473505,0 -86.94459120293051,40.43840796750392,0 -86.94463107790982,40.43840499176325,0 -86.94466515024658,40.43839709658625,0 -86.94470240248559,40.43838480727448,0 -86.94472779133726,40.43836956353267,0 -86.94474805759683,40.43835215560451,0 -86.94476404063269,40.43832896279987,0 -86.94477308768737,40.43830511434447,0 -86.9447771472618,40.43828043149615,0 -86.94477532690782,40.43826199054288,0 -86.94476983946333,40.43824545159131,0 -86.94469622754617,40.43810461463204,0 -86.94469364892414,40.43809023595107,0 -86.94469625489185,40.43807326883894,0 -86.94470087863607,40.43806427095927,0 -86.94471235229332,40.43805229474926,0 -86.94472589912576,40.43804388375421,0 -86.94482786592647,40.43801196504821,0 -86.94486096947293,40.43799700489848,0 -86.94487380523142,40.43797654699677,0 -86.94487838993581,40.43796142422273,0 -86.94488464277832,40.43794488079923,0 -86.94488760032242,40.43793055190903,0 -86.94488327556591,40.43791296124495,0 -86.94488059182284,40.43790024035356,0 -86.94487046367956,40.43788091458047,0 -86.94485499955233,40.43786469390993,0 -86.94484232444637,40.43785399082741,0 -86.94482691958129,40.43784756759048,0 -86.94445500291407,40.43767582602025,0 
					</coordinates>
				</LinearRing>
			</outerBoundaryIs>
		</Polygon>
	</Placemark>
</Document>
</kml>
